CS1                     
1 49261U 21088B   26068.75173904  .00015722  00000+0  51176-3 0  9998
2 49261  97.3882 132.1684 0014129  78.0335 282.2490 15.31848439245182
STARLINK-33705          
1 63651U 25083T   26068.20376978  .00022338  00000+0  81924-3 0  9997
2 63651  43.0039   7.8515 0001635 243.9404 116.1279 15.27563268 50028
